IRIDIUM 33 DEB          
1 38232U 97051ZG  17344.50377700  .00002383  00000-0  68297-3 0  9999
2 38232  86.4491 269.9150 0092691 217.6370 141.8322 14.42106846441294
